NORAD_CAT_ID,OBJECT_NAME,OBJECT_TYPE,EPOCH,MEAN_MOTION,ECCENTRICITY,INCLINATION,RA_OF_ASC_NODE,ARG_OF_PERICENTER,MEAN_ANOMALY,BSTAR,MEAN_MOTION_DOT,MEAN_MOTION_DDOT,TLE_LINE0,TLE_LINE1,TLE_LINE2,SEMIMAJOR_AXIS,PERIOD,APOGEE,PERIGEE,DECAYED
53002.0,STARLINK-4121,PAYLOAD,2023-04-08 13:14:31,15.08843121,0.0001546,53.2147,200.1998,88.9274,271.1895,0.00015163,2.126e-05,0.0,0 STARLINK-4121,1 53002U 22076S   23098.55175553  .00002126  00000-0  15163-3 0  9995,2 53002  53.2147 200.1998 0001546  88.9274 271.1895 15.08843121 42368,6917.871,95.437,540.805,538.666,0.0
53002.0,STARLINK-4121,PAYLOAD,2023-04-09 06:43:46,15.08838493,0.0001571,53.2146,196.9309,86.9444,273.1728,0.00012078,1.635e-05,0.0,0 STARLINK-4121,1 53002U 22076S   23099.28039868  .00001635  00000-0  12078-3 0  9990,2 53002  53.2146 196.9309 0001571  86.9444 273.1728 15.08838493 42475,6917.885,95.438,540.837,538.663,0.0
53002.0,STARLINK-4121,PAYLOAD,2023-04-09 09:54:32,15.08835071,0.0001525,53.2147,196.3351,92.9028,267.2138,3.4763e-05,2.65e-06,0.0,0 STARLINK-4121,1 53002U 22076S   23099.41287963  .00000265  00000-0  34763-4 0  9990,2 53002  53.2147 196.3351 0001525  92.9028 267.2138 15.08835071 42020,6917.895,95.438,540.815,538.705,0.0
53002.0,STARLINK-4121,PAYLOAD,2023-04-09 13:05:17,15.08872987,0.0002749,53.2158,195.7411,13.1056,347.0007,0.00060932,9.431e-05,0.0,0 STARLINK-4121,1 53002U 22076S   23099.54534392  .00009431  00000-0  60932-3 0  9995,2 53002  53.2158 195.7411 0002749  13.1056 347.0007 15.08872987 42510,6917.78,95.435,541.546,537.743,0.0
53002.0,STARLINK-4121,PAYLOAD,2023-04-10 06:34:39,15.0874693,0.0001607,53.2145,192.4707,21.8665,338.2395,-0.00046195,-7.614e-05,0.0,0 STARLINK-4121,1 53002U 22076S   23100.27407275 -.00007614  00000-0 -46195-3 0  9995,2 53002  53.2145 192.4707 0001607  21.8665 338.2395 15.08746930 42624,6918.165,95.443,541.142,538.918,0.0
53002.0,STARLINK-4121,PAYLOAD,2023-04-10 12:56:03,15.08891484,0.0002195,53.2132,191.2788,141.7116,218.4032,0.0011779,0.00018535,0.0,0 STARLINK-4121,1 53002U 22076S   23100.53892947  .00018535  00000-0  11779-2 0  9999,2 53002  53.2132 191.2788 0002195 141.7116 218.4032 15.08891484 42668,6917.723,95.434,541.106,538.07,0.0
53002.0,STARLINK-4121,PAYLOAD,2023-04-11 11:11:29,15.08854606,0.0001346,53.2154,187.1173,117.667,242.4459,-9.3603e-06,-4.37e-06,0.0,0 STARLINK-4121,1 53002U 22076S   23101.46630932 -.00000437  00000-0 -93603-5 0  9999,2 53002  53.2154 187.1173 0001346 117.6670 242.4459 15.08854606 42337,6917.836,95.437,540.632,538.77,0.0
53002.0,STARLINK-4121,PAYLOAD,2023-04-12 04:40:43,15.08844866,0.0001392,53.2161,183.8471,111.1153,248.9988,-7.7146e-05,-1.516e-05,0.0,0 STARLINK-4121,1 53002U 22076S   23102.19495058 -.00001516  00000-0 -77146-4 0  9990,2 53002  53.2161 183.8471 0001392 111.1153 248.9988 15.08844866 42914,6917.866,95.437,540.693,538.768,0.0
53002.0,STARLINK-4121,PAYLOAD,2023-04-12 12:37:39,15.08840673,0.0001254,53.2152,182.3593,118.4477,241.6641,-9.8182e-05,-1.85e-05,0.0,0 STARLINK-4121,1 53002U 22076S   23102.52615132 -.00001850  00000-0 -98182-4 0  9998,2 53002  53.2152 182.3593 0001254 118.4477 241.6641 15.08840673 42490,6917.878,95.438,540.611,538.876,0.0
53002.0,STARLINK-4121,PAYLOAD,2023-04-13 10:53:04,15.08831469,0.0001052,53.2151,178.1957,92.8497,267.2616,-6.3891e-05,-1.304e-05,0.0,0 STARLINK-4121,1 53002U 22076S   23103.45352011 -.00001304  00000-0 -63891-4 0  9998,2 53002  53.2151 178.1957 0001052  92.8497 267.2616 15.08831469 42634,6917.906,95.438,540.499,539.044,0.0
53002.0,STARLINK-4121,PAYLOAD,2023-04-14 09:08:29,15.08822001,0.0001179,53.2163,174.0331,95.054,265.0587,1.4648e-05,-5.5e-07,0.0,0 STARLINK-4121,1 53002U 22076S   23104.38089168 -.00000055  00000-0  14648-4 0  9998,2 53002  53.2163 174.0331 0001179  95.0540 265.0587 15.08822001 43245,6917.935,95.439,540.616,538.985,0.0
53002.0,STARLINK-4121,PAYLOAD,2023-04-14 12:19:14,15.08827828,0.0001202,53.2141,173.4363,83.3299,276.783,-6.6576e-05,-1.347e-05,0.0,0 STARLINK-4121,1 53002U 22076S   23104.51336425 -.00001347  00000-0 -66576-4 0  9997,2 53002  53.2141 173.4363 0001202  83.3299 276.7830 15.08827828 42798,6917.918,95.438,540.614,538.951,0.0
53002.0,STARLINK-4121,PAYLOAD,2023-04-14 13:54:37,15.08830419,0.0001278,53.2139,173.1389,85.2128,274.901,-1.2298e-05,-4.84e-06,0.0,0 STARLINK-4121,1 53002U 22076S   23104.57960405 -.00000484  00000-0 -12298-4 0  9997,2 53002  53.2139 173.1389 0001278  85.2128 274.9010 15.08830419 43279,6917.91,95.438,540.659,538.891,0.0
53002.0,STARLINK-4121,PAYLOAD,2023-04-15 10:34:37,15.08854284,0.0001373,53.2138,169.2735,82.3741,277.7407,0.00054127,8.34e-05,0.0,0 STARLINK-4121,1 53002U 22076S   23105.44071719  .00008340  00000-0  54127-3 0  9998,2 53002  53.2138 169.2735 0001373  82.3741 277.7407 15.08854284 42933,6917.837,95.437,540.652,538.752,0.0
53002.0,STARLINK-4121,PAYLOAD,2023-04-15 21:42:19,15.08855087,0.0001536,53.2138,167.1949,66.7314,293.384,0.00062849,9.733e-05,0.0,0 STARLINK-4121,1 53002U 22076S   23105.90439768  .00009733  00000-0  62849-3 0  9998,2 53002  53.2138 167.1949 0001536  66.7314 293.3840 15.08855087 43006,6917.834,95.437,540.762,538.637,0.0
53002.0,STARLINK-4121,PAYLOAD,2023-04-16 10:25:25,15.08841522,0.0001662,53.2147,164.8137,95.3176,264.8005,0.00011171,1.49e-05,0.0,0 STARLINK-4121,1 53002U 22076S   23106.43431967  .00001490  00000-0  11171-3 0  9994,2 53002  53.2147 164.8137 0001662  95.3176 264.8005 15.08841522 43086,6917.876,95.437,540.89,538.591,0.0
53002.0,STARLINK-4121,PAYLOAD,2023-04-17 10:16:12,15.08843402,0.0001666,53.216,160.3515,110.1477,249.9694,-5.3654e-05,-1.142e-05,0.0,0 STARLINK-4121,1 53002U 22076S   23107.42792170 -.00001142  00000-0 -53654-4 0  9999,2 53002  53.2160 160.3515 0001666 110.1477 249.9694 15.08843402 43230,6917.87,95.437,540.888,538.582,0.0
53002.0,STARLINK-4121,PAYLOAD,2023-04-18 11:42:22,15.08841977,0.0001414,53.2159,155.5949,99.7848,260.3304,0.00011246,1.502e-05,0.0,0 STARLINK-4121,1 53002U 22076S   23108.48775984  .00001502  00000-0  11246-3 0  9998,2 53002  53.2159 155.5949 0001414  99.7848 260.3304 15.08841977 43397,6917.874,95.437,540.718,538.761,0.0
53002.0,STARLINK-4121,PAYLOAD,2023-04-18 13:17:45,15.08843631,0.0001355,53.2152,155.2966,98.9149,261.1997,0.00012351,1.678e-05,0.0,0 STARLINK-4121,1 53002U 22076S   23108.55399834  .00001678  00000-0  12351-3 0  9994,2 53002  53.2152 155.2966 0001355  98.9149 261.1997 15.08843631 43874,6917.869,95.437,540.672,538.797,0.0
53002.0,STARLINK-4121,PAYLOAD,2023-04-18 19:39:18,15.08837485,0.0001355,53.2151,154.1067,89.249,270.8657,0.00011763,1.585e-05,0.0,0 STARLINK-4121,1 53002U 22076S   23108.81896350  .00001585  00000-0  11763-3 0  9991,2 53002  53.2151 154.1067 0001355  89.2490 270.8657 15.08837485 43910,6917.888,95.438,540.69,538.816,0.0
53002.0,STARLINK-4121,PAYLOAD,2023-04-19 03:36:14,15.08832613,0.0001298,53.2158,152.62,92.2593,267.8548,5.2236e-05,5.43e-06,0.0,0 STARLINK-4121,1 53002U 22076S   23109.15016965  .00000543  00000-0  52236-4 0  9999,2 53002  53.2158 152.6200 0001298  92.2593 267.8548 15.08832613 43961,6917.903,95.438,540.666,538.87,0.0
53002.0,STARLINK-4121,PAYLOAD,2023-04-19 11:33:10,15.0883557,0.0001282,53.216,151.1334,87.9293,272.1846,6.5324e-05,7.52e-06,0.0,0 STARLINK-4121,1 53002U 22076S   23109.48136780  .00000752  00000-0  65324-4 0  9997,2 53002  53.2160 151.1334 0001282  87.9293 272.1846 15.08835570 43546,6917.894,95.438,540.646,538.872,0.0
53002.0,STARLINK-4121,PAYLOAD,2023-04-19 19:30:05,15.08835226,0.0001394,53.2156,149.6464,96.1872,263.9279,5.5267e-05,5.92e-06,0.0,0 STARLINK-4121,1 53002U 22076S   23109.81256926  .00000592  00000-0  55267-4 0  9996,2 53002  53.2156 149.6464 0001394  96.1872 263.9279 15.08835226 43597,6917.895,95.438,540.724,538.796,0.0
53002.0,STARLINK-4121,PAYLOAD,2023-04-20 12:59:20,15.08841427,0.0001353,53.2154,146.3753,93.8265,266.2882,6.3812e-05,7.28e-06,0.0,0 STARLINK-4121,1 53002U 22076S   23110.54120624  .00000728  00000-0  63812-4 0  9999,2 53002  53.2154 146.3753 0001353  93.8265 266.2882 15.08841427 43704,6917.876,95.437,540.677,538.805,0.0
53002.0,STARLINK-4121,PAYLOAD,2023-04-21 14:25:30,15.08836542,0.0001392,53.2151,141.6171,85.9144,274.2007,6.1394e-05,6.89e-06,0.0,0 STARLINK-4121,1 53002U 22076S   23111.60105277  .00000689  00000-0  61394-4 0  9993,2 53002  53.2151 141.6171 0001392  85.9144 274.2007 15.08836542 43861,6917.891,95.438,540.719,538.793,0.0
53002.0,STARLINK-4121,PAYLOAD,2023-04-22 01:33:12,15.08828574,7.57e-05,53.2151,139.5331,105.3363,254.7713,0.00019774,2.86e-05,0.0,0 STARLINK-4121,1 53002U 22076S   23112.06473210  .00002860  00000-0  19774-3 0  9996,2 53002  53.2151 139.5331 0000757 105.3363 254.7713 15.08828574 43930,6917.915,95.438,540.304,539.257,0.0
53002.0,STARLINK-4121,PAYLOAD,2023-04-22 19:02:26,15.08840577,0.0001144,53.2148,136.2627,109.1707,250.9409,5.0745e-05,5.2e-06,0.0,0 STARLINK-4121,1 53002U 22076S   23112.79336783  .00000520  00000-0  50745-4 0  9994,2 53002  53.2148 136.2627 0001144 109.1707 250.9409 15.08840577 44043,6917.879,95.438,540.535,538.952,0.0
53002.0,STARLINK-4121,PAYLOAD,2023-04-23 12:31:42,15.0883352,0.0001328,53.2145,132.9935,93.2733,266.8411,-6.5657e-06,-3.92e-06,0.0,0 STARLINK-4121,1 53002U 22076S   23113.52201894 -.00000392  00000-0 -65657-5 0  9998,2 53002  53.2145 132.9935 0001328  93.2733 266.8411 15.08833520 44624,6917.9,95.438,540.684,538.846,0.0
53002.0,STARLINK-4121,PAYLOAD,2023-04-23 18:53:15,15.08826243,0.000128,53.2154,131.8067,72.4296,287.6836,-7.7096e-05,-1.514e-05,0.0,0 STARLINK-4121,1 53002U 22076S   23113.78698750 -.00001514  00000-0 -77096-4 0  9993,2 53002  53.2154 131.8067 0001280  72.4296 287.6836 15.08826243 44196,6917.922,95.438,540.673,538.902,0.0
53002.0,STARLINK-4121,PAYLOAD,2023-04-24 12:22:29,15.08838864,0.0001343,53.2161,128.5331,82.6116,277.5029,-2.4062e-06,-3.26e-06,0.0,0 STARLINK-4121,1 53002U 22076S   23114.51562148 -.00000326  00000-0 -24062-5 0  9992,2 53002  53.2161 128.5331 0001343  82.6116 277.5029 15.08838864 44773,6917.884,95.438,540.678,538.82,0.0
